{"type": "FeatureCollection", "features": [ {"type": "Feature", "properties": {"norad_id": 47012, "name": "FENGYUN 1C DEB", "group": "fengyun-1c-debris", "lat": 81.2389864367824, "lon": 135.73188634327954, "alt_km": 854.969856577125, "timestamp": "2025-12-12T11:38:31.702663+00:00", "meta": {"OBJECT_NAME": "FENGYUN 1C DEB", "OBJECT_ID": "1999-025FAN", "EPOCH": "2025-12-05T22:22:36.481152", "MEAN_MOTION": 13.77908149, "ECCENTRICITY": 0.01638485, "INCLINATION": 98.755, "RA_OF_ASC_NODE": 218.9381, "ARG_OF_PERICENTER": 81.7177, "MEAN_ANOMALY": 280.2518, "EPHEMERIS_TYPE": 0, "CLASSIFICATION_TYPE": "U", "NORAD_CAT_ID": 47012, "ELEMENT_SET_NO": 999, "REV_AT_EPOCH": 54479, "BSTAR": 0.00065808903, "MEAN_MOTION_DOT": 6.91e-06, "MEAN_MOTION_DDOT": 0}, "tle": {"line1": "1 47012U 99025FAN 25339.93236668  .00000691  00000+0  65809-3 0  9990", "line2": "2 47012  98.7550 218.9381 0163848  81.7177 280.2518 13.77908149544797"}}, "geometry": {"type": "Point", "coordinates": [135.73188634327954, 81.2389864367824]}}, {"type": "Feature", "properties": {"norad_id": 47013, "name": "FENGYUN 1C DEB", "group": "fengyun-1c-debris", "lat": -6.735115589636049, "lon": -124.65678079798307, "alt_km": 775.9453504390885, "timestamp": "2025-12-12T11:38:31.702674+00:00", "meta": {"OBJECT_NAME": "FENGYUN 1C DEB", "OBJECT_ID": "1999-025FAP", "EPOCH": "2025-11-16T11:10:59.954016", "MEAN_MOTION": 14.24672933, "ECCENTRICITY": 0.00559466, "INCLINATION": 98.0819, "RA_OF_ASC_NODE": 32.3431, "ARG_OF_PERICENTER": 238.0397, "MEAN_ANOMALY": 121.5338, "EPHEMERIS_TYPE": 0, "CLASSIFICATION_TYPE": "U", "NORAD_CAT_ID": 47013, "ELEMENT_SET_NO": 999, "REV_AT_EPOCH": 72885, "BSTAR": 0.0028202138, "MEAN_MOTION_DOT": 6.632e-05, "MEAN_MOTION_DDOT": 0}, "tle": {"line1": "1 47013U 99025FAP 25320.46597169  .00006632  00000+0  28202-2 0  9991", "line2": "2 47013  98.0819  32.3431 0055946 238.0397 121.5338 14.24672933728853"}}, "geometry": {"type": "Point", "coordinates": [-124.65678079798307, -6.735115589636049]}}, {"type": "Feature", "properties": {"norad_id": 47015, "name": "FENGYUN 1C DEB", "group": "fengyun-1c-debris", "lat": -40.03280032156275, "lon": 50.57370735106024, "alt_km": 722.4709979933041, "timestamp": "2025-12-12T11:38:31.702684+00:00", "meta": {"OBJECT_NAME": "FENGYUN 1C DEB", "OBJECT_ID": "1999-025FAR", "EPOCH": "2025-12-07T02:39:25.768224", "MEAN_MOTION": 14.87223256, "ECCENTRICITY": 0.01761697, "INCLINATION": 98.7113, "RA_OF_ASC_NODE": 37.2769, "ARG_OF_PERICENTER": 130.5796, "MEAN_ANOMALY": 231.0902, "EPHEMERIS_TYPE": 0, "CLASSIFICATION_TYPE": "U", "NORAD_CAT_ID": 47015, "ELEMENT_SET_NO": 999, "REV_AT_EPOCH": 64298, "BSTAR": 0.0012529524, "MEAN_MOTION_DOT": 0.00014972, "MEAN_MOTION_DDOT": 0}, "tle": {"line1": "1 47015U 99025FAR 25341.11071491  .00014972  00000+0  12530-2 0  9996", "line2": "2 47015  98.7113  37.2769 0176169 130.5796 231.0902 14.87223256642989"}}, "geometry": {"type": "Point", "coordinates": [50.57370735106024, -40.03280032156275]}}, {"type": "Feature", "properties": {"norad_id": 47025, "name": "FENGYUN 1C DEB", "group": "fengyun-1c-debris", "lat": -18.08489985492143, "lon": -164.0194698485544, "alt_km": 714.9995169581225, "timestamp": "2025-12-12T11:38:31.702694+00:00", "meta": {"OBJECT_NAME": "FENGYUN 1C DEB", "OBJECT_ID": "1999-025FBB", "EPOCH": "2025-12-11T01:33:21.216960", "MEAN_MOTION": 14.46249572, "ECCENTRICITY": 0.00406603, "INCLINATION": 99.0338, "RA_OF_ASC_NODE": 191.49, "ARG_OF_PERICENTER": 2.31, "MEAN_ANOMALY": 149.1777, "EPHEMERIS_TYPE": 0, "CLASSIFICATION_TYPE": "U", "NORAD_CAT_ID": 47025, "ELEMENT_SET_NO": 999, "REV_AT_EPOCH": 62717, "BSTAR": 0.0032198201, "MEAN_MOTION_DOT": 0.00011616, "MEAN_MOTION_DDOT": 0}, "tle": {"line1": "1 47025U 99025FBB 25345.06482890  .00011616  00000+0  32198-2 0  9998", "line2": "2 47025  99.0338 191.4900 0040660   2.3100 149.1777 14.46249572627171"}}, "geometry": {"type": "Point", "coordinates": [-164.0194698485544, -18.08489985492143]}}, {"type": "Feature", "properties": {"norad_id": 47036, "name": "FENGYUN 1C DEB", "group": "fengyun-1c-debris", "lat": 6.152277073436961, "lon": -149.1476642540771, "alt_km": 830.974970241462, "timestamp": "2025-12-12T11:38:31.702704+00:00", "meta": {"OBJECT_NAME": "FENGYUN 1C DEB", "OBJECT_ID": "1999-025FBN", "EPOCH": "2025-12-08T08:42:19.355328", "MEAN_MOTION": 14.15172568, "ECCENTRICITY": 0.00687855, "INCLINATION": 98.7227, "RA_OF_ASC_NODE": 25.8733, "ARG_OF_PERICENTER": 109.9906, "MEAN_ANOMALY": 312.7639, "EPHEMERIS_TYPE": 0, "CLASSIFICATION_TYPE": "U", "NORAD_CAT_ID": 47036, "ELEMENT_SET_NO": 999, "REV_AT_EPOCH": 59865, "BSTAR": 0.00025817541, "MEAN_MOTION_DOT": 4.7e-06, "MEAN_MOTION_DDOT": 0}, "tle": {"line1": "1 47036U 99025FBN 25342.36272402  .00000470  00000+0  25818-3 0  9994", "line2": "2 47036  98.7227  25.8733 0068785 109.9906 312.7639 14.15172568598657"}}, "geometry": {"type": "Point", "coordinates": [-149.1476642540771, 6.152277073436961]}}, {"type": "Feature", "properties": {"norad_id": 47040, "name": "FENGYUN 1C DEB", "group": "fengyun-1c-debris", "lat": -31.811355474643573, "lon": -100.31234006064965, "alt_km": 880.4500451108042, "timestamp": "2025-12-12T11:38:31.702714+00:00", "meta": {"OBJECT_NAME": "FENGYUN 1C DEB", "OBJECT_ID": "1999-025FBS", "EPOCH": "2025-12-10T23:56:36.325824", "MEAN_MOTION": 14.06483958, "ECCENTRICITY": 0.00627252, "INCLINATION": 100.2943, "RA_OF_ASC_NODE": 251.5252, "ARG_OF_PERICENTER": 237.4301, "MEAN_ANOMALY": 122.0795, "EPHEMERIS_TYPE": 0, "CLASSIFICATION_TYPE": "U", "NORAD_CAT_ID": 47040, "ELEMENT_SET_NO": 999, "REV_AT_EPOCH": 89084, "BSTAR": 0.00064394729, "MEAN_MOTION_DOT": 1.028e-05, "MEAN_MOTION_DDOT": 0}, "tle": {"line1": "1 47040U 99025FBS 25344.99764266  .00001028  00000+0  64395-3 0  9997", "line2": "2 47040 100.2943 251.5252 0062725 237.4301 122.0795 14.06483958890843"}}, "geometry": {"type": "Point", "coordinates": [-100.31234006064965, -31.811355474643573]}}, {"type": "Feature", "properties": {"norad_id": 47041, "name": "FENGYUN 1C DEB", "group": "fengyun-1c-debris", "lat": 25.529702595490296, "lon": -163.03856149157036, "alt_km": 535.5491844637327, "timestamp": "2025-12-12T11:38:31.702724+00:00", "meta": {"OBJECT_NAME": "FENGYUN 1C DEB", "OBJECT_ID": "1999-025FBT", "EPOCH": "2025-12-10T19:53:59.087040", "MEAN_MOTION": 15.06982698, "ECCENTRICITY": 0.00146942, "INCLINATION": 98.256, "RA_OF_ASC_NODE": 11.2097, "ARG_OF_PERICENTER": 191.3996, "MEAN_ANOMALY": 344.1998, "EPHEMERIS_TYPE": 0, "CLASSIFICATION_TYPE": "U", "NORAD_CAT_ID": 47041, "ELEMENT_SET_NO": 999, "REV_AT_EPOCH": 71160, "BSTAR": 0.0030573384, "MEAN_MOTION_DOT": 0.00046063, "MEAN_MOTION_DDOT": 0}, "tle": {"line1": "1 47041U 99025FBT 25344.82915610  .00046063  00000+0  30573-2 0  9999", "line2": "2 47041  98.2560  11.2097 0014694 191.3996 344.1998 15.06982698711607"}}, "geometry": {"type": "Point", "coordinates": [-163.03856149157036, 25.529702595490296]}}, {"type": "Feature", "properties": {"norad_id": 47042, "name": "FENGYUN 1C DEB", "group": "fengyun-1c-debris", "lat": -79.20012144216197, "lon": 7.794406400143742, "alt_km": 849.2531836112457, "timestamp": "2025-12-12T11:38:31.702734+00:00", "meta": {"OBJECT_NAME": "FENGYUN 1C DEB", "OBJECT_ID": "1999-025FBU", "EPOCH": "2025-12-11T22:52:31.155168", "MEAN_MOTION": 14.22834675, "ECCENTRICITY": 0.0055348, "INCLINATION": 99.0007, "RA_OF_ASC_NODE": 243.4409, "ARG_OF_PERICENTER": 36.8325, "MEAN_ANOMALY": 24.4112, "EPHEMERIS_TYPE": 0, "CLASSIFICATION_TYPE": "U", "NORAD_CAT_ID": 47042, "ELEMENT_SET_NO": 999, "REV_AT_EPOCH": 62510, "BSTAR": 0.00041842, "MEAN_MOTION_DOT": 9.08e-06, "MEAN_MOTION_DDOT": 0}, "tle": {"line1": "1 47042U 99025FBU 25345.95313837  .00000908  00000+0  41842-3 0  9998", "line2": "2 47042  99.0007 243.4409 0055348  36.8325  24.4112 14.22834675625102"}}, "geometry": {"type": "Point", "coordinates": [7.794406400143742, -79.20012144216197]}}, {"type": "Feature", "properties": {"norad_id": 47100, "name": "FENGYUN 1C DEB", "group": "fengyun-1c-debris", "lat": 4.5491088586283075, "lon": 165.26871258463706, "alt_km": 660.9372533407777, "timestamp": "2025-12-12T11:38:31.702744+00:00", "meta": {"OBJECT_NAME": "FENGYUN 1C DEB", "OBJECT_ID": "1999-025FBY", "EPOCH": "2025-12-12T00:02:23.570880", "MEAN_MOTION": 14.51407425, "ECCENTRICITY": 0.0089326, "INCLINATION": 99.0207, "RA_OF_ASC_NODE": 165.4745, "ARG_OF_PERICENTER": 355.8769, "MEAN_ANOMALY": 4.1677, "EPHEMERIS_TYPE": 0, "CLASSIFICATION_TYPE": "U", "NORAD_CAT_ID": 47100, "ELEMENT_SET_NO": 999, "REV_AT_EPOCH": 26757, "BSTAR": 0.002748, "MEAN_MOTION_DOT": 0.00011508, "MEAN_MOTION_DDOT": 0}, "tle": {"line1": "1 47100U 99025FBY 25346.00166170  .00011508  00000+0  27480-2 0  9995", "line2": "2 47100  99.0207 165.4745 0089326 355.8769   4.1677 14.51407425267579"}}, "geometry": {"type": "Point", "coordinates": [165.26871258463706, 4.5491088586283075]}}, {"type": "Feature", "properties": {"norad_id": 47104, "name": "FENGYUN 1C DEB", "group": "fengyun-1c-debris", "lat": -32.98757685341617, "lon": 21.879415015310638, "alt_km": 804.6407498343005, "timestamp": "2025-12-12T11:38:31.702754+00:00", "meta": {"OBJECT_NAME": "FENGYUN 1C DEB", "OBJECT_ID": "1999-025FCC", "EPOCH": "2025-12-05T07:14:15.762912", "MEAN_MOTION": 14.19416271, "ECCENTRICITY": 0.00406545, "INCLINATION": 98.9092, "RA_OF_ASC_NODE": 8.8127, "ARG_OF_PERICENTER": 358.5803, "MEAN_ANOMALY": 1.5251, "EPHEMERIS_TYPE": 0, "CLASSIFICATION_TYPE": "U", "NORAD_CAT_ID": 47104, "ELEMENT_SET_NO": 999, "REV_AT_EPOCH": 62267, "BSTAR": 0.00037828604, "MEAN_MOTION_DOT": 7.57e-06, "MEAN_MOTION_DDOT": 0}, "tle": {"line1": "1 47104U 99025FCC 25339.30157133  .00000757  00000+0  37829-3 0  9996", "line2": "2 47104  98.9092   8.8127 0040654 358.5803   1.5251 14.19416271622675"}}, "geometry": {"type": "Point", "coordinates": [21.879415015310638, -32.98757685341617]}}]}